{"type": "FeatureCollection", "features": [ {"type": "Feature", "properties": {"norad_id": 66649, "name": "COSMOS 2599 (RODNIK-S 24)", "group": "last-30-days", "lat": 67.60147096492571, "lon": -55.65205049124182, "alt_km": 1499.5561686176343, "timestamp": "2025-12-13T22:39:28.444943+00:00", "meta": {"OBJECT_NAME": "COSMOS 2599 (RODNIK-S 24)", "OBJECT_ID": "2025-273C", "EPOCH": "2025-12-13T06:48:40.072032", "MEAN_MOTION": 12.41150952, "ECCENTRICITY": 0.00063184, "INCLINATION": 82.5045, "RA_OF_ASC_NODE": 286.1295, "ARG_OF_PERICENTER": 277.3968, "MEAN_ANOMALY": 82.6393, "EPHEMERIS_TYPE": 0, "CLASSIFICATION_TYPE": "U", "NORAD_CAT_ID": 66649, "ELEMENT_SET_NO": 999, "REV_AT_EPOCH": 220, "BSTAR": 0.00010130679, "MEAN_MOTION_DOT": 2.4e-07, "MEAN_MOTION_DDOT": 0}, "tle": {"line1": "1 66649U 25273C   25347.28379713  .00000024  00000+0  10131-3 0  9995", "line2": "2 66649  82.5045 286.1295 0006318 277.3968  82.6393 12.41150952  2205"}}, "geometry": {"type": "Point", "coordinates": [-55.65205049124182, 67.60147096492571]}}, {"type": "Feature", "properties": {"norad_id": 66650, "name": "BEE-1000", "group": "last-30-days", "lat": -80.67211114293069, "lon": -29.00820108652454, "alt_km": 593.7088417966334, "timestamp": "2025-12-13T22:39:28.444957+00:00", "meta": {"OBJECT_NAME": "BEE-1000", "OBJECT_ID": "2025-274A", "EPOCH": "2025-12-13T06:56:16.772064", "MEAN_MOTION": 14.91666733, "ECCENTRICITY": 0.00103644, "INCLINATION": 97.7387, "RA_OF_ASC_NODE": 274.4666, "ARG_OF_PERICENTER": 249.2427, "MEAN_ANOMALY": 110.7682, "EPHEMERIS_TYPE": 0, "CLASSIFICATION_TYPE": "U", "NORAD_CAT_ID": 66650, "ELEMENT_SET_NO": 999, "REV_AT_EPOCH": 248, "BSTAR": 0.00032925068, "MEAN_MOTION_DOT": 3.257e-05, "MEAN_MOTION_DDOT": 0}, "tle": {"line1": "1 66650U 25274A   25347.28908301  .00003257  00000+0  32925-3 0  9995", "line2": "2 66650  97.7387 274.4666 0010364 249.2427 110.7682 14.91666733  2480"}}, "geometry": {"type": "Point", "coordinates": [-29.00820108652454, -80.67211114293069]}}, {"type": "Feature", "properties": {"norad_id": 66651, "name": "2025-274B", "group": "last-30-days", "lat": -76.73583033491211, "lon": -49.66088626120281, "alt_km": 593.5535006784903, "timestamp": "2025-12-13T22:39:28.444967+00:00", "meta": {"OBJECT_NAME": "2025-274B", "OBJECT_ID": "2025-274B", "EPOCH": "2025-12-13T06:54:52.283232", "MEAN_MOTION": 14.91808403, "ECCENTRICITY": 0.00105723, "INCLINATION": 97.7382, "RA_OF_ASC_NODE": 274.4671, "ARG_OF_PERICENTER": 248.1887, "MEAN_ANOMALY": 111.8207, "EPHEMERIS_TYPE": 0, "CLASSIFICATION_TYPE": "U", "NORAD_CAT_ID": 66651, "ELEMENT_SET_NO": 999, "REV_AT_EPOCH": 248, "BSTAR": 0.00068707612, "MEAN_MOTION_DOT": 6.886e-05, "MEAN_MOTION_DDOT": 0}, "tle": {"line1": "1 66651U 25274B   25347.28810513  .00006886  00000+0  68708-3 0  9992", "line2": "2 66651  97.7382 274.4671 0010572 248.1887 111.8207 14.91808403  2488"}}, "geometry": {"type": "Point", "coordinates": [-49.66088626120281, -76.73583033491211]}}, {"type": "Feature", "properties": {"norad_id": 66652, "name": "2025-274C", "group": "last-30-days", "lat": -69.6250502769539, "lon": -63.406288075304715, "alt_km": 593.450527850433, "timestamp": "2025-12-13T22:39:28.444978+00:00", "meta": {"OBJECT_NAME": "2025-274C", "OBJECT_ID": "2025-274C", "EPOCH": "2025-12-13T06:52:45.115392", "MEAN_MOTION": 14.91903917, "ECCENTRICITY": 0.0010293, "INCLINATION": 97.7388, "RA_OF_ASC_NODE": 274.4699, "ARG_OF_PERICENTER": 255.2589, "MEAN_ANOMALY": 104.7489, "EPHEMERIS_TYPE": 0, "CLASSIFICATION_TYPE": "U", "NORAD_CAT_ID": 66652, "ELEMENT_SET_NO": 999, "REV_AT_EPOCH": 248, "BSTAR": 0.00043544219, "MEAN_MOTION_DOT": 4.352e-05, "MEAN_MOTION_DDOT": 0}, "tle": {"line1": "1 66652U 25274C   25347.28663328  .00004352  00000+0  43544-3 0  9990", "line2": "2 66652  97.7388 274.4699 0010293 255.2589 104.7489 14.91903917  2482"}}, "geometry": {"type": "Point", "coordinates": [-63.406288075304715, -69.6250502769539]}}, {"type": "Feature", "properties": {"norad_id": 66653, "name": "2025-274D", "group": "last-30-days", "lat": -69.21037121132207, "lon": -63.8964529168616, "alt_km": 593.309347888372, "timestamp": "2025-12-13T22:39:28.444987+00:00", "meta": {"OBJECT_NAME": "2025-274D", "OBJECT_ID": "2025-274D", "EPOCH": "2025-12-13T06:52:38.371008", "MEAN_MOTION": 14.91913787, "ECCENTRICITY": 0.00111413, "INCLINATION": 97.7386, "RA_OF_ASC_NODE": 274.4698, "ARG_OF_PERICENTER": 251.2144, "MEAN_ANOMALY": 108.7867, "EPHEMERIS_TYPE": 0, "CLASSIFICATION_TYPE": "U", "NORAD_CAT_ID": 66653, "ELEMENT_SET_NO": 999, "REV_AT_EPOCH": 248, "BSTAR": 0.00048994957, "MEAN_MOTION_DOT": 4.906e-05, "MEAN_MOTION_DDOT": 0}, "tle": {"line1": "1 66653U 25274D   25347.28655522  .00004906  00000+0  48995-3 0  9998", "line2": "2 66653  97.7386 274.4698 0011141 251.2144 108.7867 14.91913787  2486"}}, "geometry": {"type": "Point", "coordinates": [-63.8964529168616, -69.21037121132207]}}, {"type": "Feature", "properties": {"norad_id": 66654, "name": "JACK E", "group": "last-30-days", "lat": -59.30893605100755, "lon": -71.63540209890273, "alt_km": 593.1588152196764, "timestamp": "2025-12-13T22:39:28.445001+00:00", "meta": {"OBJECT_NAME": "JACK E", "OBJECT_ID": "2025-274E", "EPOCH": "2025-12-12T17:57:23.787072", "MEAN_MOTION": 14.92083468, "ECCENTRICITY": 0.00117279, "INCLINATION": 97.7387, "RA_OF_ASC_NODE": 273.9456, "ARG_OF_PERICENTER": 255.0239, "MEAN_ANOMALY": 104.9682, "EPHEMERIS_TYPE": 0, "CLASSIFICATION_TYPE": "U", "NORAD_CAT_ID": 66654, "ELEMENT_SET_NO": 999, "REV_AT_EPOCH": 240, "BSTAR": 0.00049140414, "MEAN_MOTION_DOT": 4.943e-05, "MEAN_MOTION_DDOT": 0}, "tle": {"line1": "1 66654U 25274E   25346.74819198  .00004943  00000+0  49140-3 0  9994", "line2": "2 66654  97.7387 273.9456 0011727 255.0239 104.9682 14.92083468  2401"}}, "geometry": {"type": "Point", "coordinates": [-71.63540209890273, -59.30893605100755]}}, {"type": "Feature", "properties": {"norad_id": 66655, "name": "2025-274F", "group": "last-30-days", "lat": -60.02444631039644, "lon": -71.2544745800113, "alt_km": 600.5287853934933, "timestamp": "2025-12-13T22:39:28.445015+00:00", "meta": {"OBJECT_NAME": "2025-274F", "OBJECT_ID": "2025-274F", "EPOCH": "2025-12-12T19:33:04.273920", "MEAN_MOTION": 14.91089281, "ECCENTRICITY": 0.00054102, "INCLINATION": 97.7325, "RA_OF_ASC_NODE": 274.0134, "ARG_OF_PERICENTER": 14.8803, "MEAN_ANOMALY": 345.2574, "EPHEMERIS_TYPE": 0, "CLASSIFICATION_TYPE": "U", "NORAD_CAT_ID": 66655, "ELEMENT_SET_NO": 999, "REV_AT_EPOCH": 241, "BSTAR": 2.464325e-05, "MEAN_MOTION_DOT": 1.89e-06, "MEAN_MOTION_DDOT": 0}, "tle": {"line1": "1 66655U 25274F   25346.81463280  .00000189  00000+0  24643-4 0  9990", "line2": "2 66655  97.7325 274.0134 0005410  14.8803 345.2574 14.91089281  2418"}}, "geometry": {"type": "Point", "coordinates": [-71.2544745800113, -60.02444631039644]}}, {"type": "Feature", "properties": {"norad_id": 66656, "name": "2025-274G", "group": "last-30-days", "lat": -48.161186126183125, "lon": -76.13939613476037, "alt_km": 593.2045136129464, "timestamp": "2025-12-13T22:39:28.445025+00:00", "meta": {"OBJECT_NAME": "2025-274G", "OBJECT_ID": "2025-274G", "EPOCH": "2025-12-13T06:46:59.756448", "MEAN_MOTION": 14.92281987, "ECCENTRICITY": 0.00123082, "INCLINATION": 97.7385, "RA_OF_ASC_NODE": 274.4749, "ARG_OF_PERICENTER": 254.8031, "MEAN_ANOMALY": 105.1827, "EPHEMERIS_TYPE": 0, "CLASSIFICATION_TYPE": "U", "NORAD_CAT_ID": 66656, "ELEMENT_SET_NO": 999, "REV_AT_EPOCH": 248, "BSTAR": 0.0005605214, "MEAN_MOTION_DOT": 5.676e-05, "MEAN_MOTION_DDOT": 0}, "tle": {"line1": "1 66656U 25274G   25347.28263607  .00005676  00000+0  56052-3 0  9998", "line2": "2 66656  97.7385 274.4749 0012308 254.8031 105.1827 14.92281987  2483"}}, "geometry": {"type": "Point", "coordinates": [-76.13939613476037, -48.161186126183125]}}, {"type": "Feature", "properties": {"norad_id": 66657, "name": "SPIRONE", "group": "last-30-days", "lat": -37.28191817095644, "lon": -78.92936270958631, "alt_km": 591.9643208165144, "timestamp": "2025-12-13T22:39:28.445037+00:00", "meta": {"OBJECT_NAME": "SPIRONE", "OBJECT_ID": "2025-274H", "EPOCH": "2025-12-13T06:44:08.020032", "MEAN_MOTION": 14.92460436, "ECCENTRICITY": 0.00106178, "INCLINATION": 97.7381, "RA_OF_ASC_NODE": 274.477, "ARG_OF_PERICENTER": 273.9871, "MEAN_ANOMALY": 86.0134, "EPHEMERIS_TYPE": 0, "CLASSIFICATION_TYPE": "U", "NORAD_CAT_ID": 66657, "ELEMENT_SET_NO": 999, "REV_AT_EPOCH": 248, "BSTAR": 0.00053388828, "MEAN_MOTION_DOT": 5.426e-05, "MEAN_MOTION_DDOT": 0}, "tle": {"line1": "1 66657U 25274H   25347.28064838  .00005426  00000+0  53389-3 0  9997", "line2": "2 66657  97.7381 274.4770 0010617 273.9871  86.0134 14.92460436  2485"}}, "geometry": {"type": "Point", "coordinates": [-78.92936270958631, -37.28191817095644]}}, {"type": "Feature", "properties": {"norad_id": 66658, "name": "2025-274J", "group": "last-30-days", "lat": -26.62969668243785, "lon": -80.95679929699575, "alt_km": 591.3964548506638, "timestamp": "2025-12-13T22:39:28.445049+00:00", "meta": {"OBJECT_NAME": "2025-274J", "OBJECT_ID": "2025-274J", "EPOCH": "2025-12-13T06:41:20.904288", "MEAN_MOTION": 14.92630391, "ECCENTRICITY": 0.00112261, "INCLINATION": 97.7383, "RA_OF_ASC_NODE": 274.4797, "ARG_OF_PERICENTER": 276.8376, "MEAN_ANOMALY": 83.1566, "EPHEMERIS_TYPE": 0, "CLASSIFICATION_TYPE": "U", "NORAD_CAT_ID": 66658, "ELEMENT_SET_NO": 999, "REV_AT_EPOCH": 248, "BSTAR": 0.00049566659, "MEAN_MOTION_DOT": 5.055e-05, "MEAN_MOTION_DDOT": 0}, "tle": {"line1": "1 66658U 25274J   25347.27871417  .00005055  00000+0  49567-3 0  9997", "line2": "2 66658  97.7383 274.4797 0011226 276.8376  83.1566 14.92630391  2482"}}, "geometry": {"type": "Point", "coordinates": [-80.95679929699575, -26.62969668243785]}}]}